METHANESAT              
1 59101U 24043D   25164.83745655  .00003988  00000+0  36623-3 0  9990
2 59101  97.8013 290.9210 0011765 152.7144 207.4697 14.95356768 69557
